[{"OBJECT_NAME":"STARLINK-31417","OBJECT_ID":"2024-046R","EPOCH":"2026-03-09T22:32:22.560000","MEAN_MOTION":15.30194762,"ECCENTRICITY":0.00010089,"INCLINATION":53.1611,"RA_OF_ASC_NODE":154.4681,"ARG_OF_PERICENTER":92.4386,"MEAN_ANOMALY":267.673,"EPHEMERIS_TYPE":0,"CLASSIFICATION_TYPE":"U","NORAD_CAT_ID":59216,"ELEMENT_SET_NO":999,"REV_AT_EPOCH":11295,"BSTAR":2.8031089e-5,"MEAN_MOTION_DOT":4.71e-6,"MEAN_MOTION_DDOT":0},{"OBJECT_NAME":"PEGASUS R\/B","OBJECT_ID":"2007-015B","EPOCH":"2026-03-09T10:58:33.801024","MEAN_MOTION":15.26741121,"ECCENTRICITY":0.00105976,"INCLINATION":97.9168,"RA_OF_ASC_NODE":31.3919,"ARG_OF_PERICENTER":317.6341,"MEAN_ANOMALY":42.4077,"EPHEMERIS_TYPE":0,"CLASSIFICATION_TYPE":"U","NORAD_CAT_ID":31305,"ELEMENT_SET_NO":999,"REV_AT_EPOCH":3383,"BSTAR":0.00044093522,"MEAN_MOTION_DOT":0.00011537,"MEAN_MOTION_DDOT":0}]
